NORAD_CAT_ID,OBJECT_NAME,OBJECT_TYPE,EPOCH,MEAN_MOTION,ECCENTRICITY,INCLINATION,RA_OF_ASC_NODE,ARG_OF_PERICENTER,MEAN_ANOMALY,BSTAR,MEAN_MOTION_DOT,MEAN_MOTION_DDOT,TLE_LINE0,TLE_LINE1,TLE_LINE2,SEMIMAJOR_AXIS,PERIOD,APOGEE,PERIGEE,DECAYED
51804.0,STARLINK-3601,PAYLOAD,2023-08-24 01:38:33,15.08837628,0.0001285,53.2162,177.8619,92.537,267.5769,-2.928e-05,-7.54e-06,0.0,0 STARLINK-3601,1 51804U 22017AN  23236.06844412 -.00000754  00000-0 -29280-4 0  9998,2 51804  53.2162 177.8619 0001285  92.5370 267.5769 15.08837628 83966,6917.888,95.438,540.642,538.864,0.0
51804.0,STARLINK-3601,PAYLOAD,2023-08-25 04:40:06,15.08839827,0.0001312,53.2176,172.8103,95.1702,264.944,7.9993e-05,9.85e-06,0.0,0 STARLINK-3601,1 51804U 22017AN  23237.19452301  .00000985  00000-0  79993-4 0  9995,2 51804  53.2176 172.8103 0001312  95.1702 264.9440 15.08839827 84234,6917.881,95.438,540.654,538.838,0.0
51804.0,STARLINK-3601,PAYLOAD,2023-08-26 04:30:53,15.08842853,0.000135,53.2175,168.35,96.8544,263.2602,0.00011923,1.61e-05,0.0,0 STARLINK-3601,1 51804U 22017AN  23238.18812309  .00001610  00000-0  11923-3 0  9997,2 51804  53.2175 168.3500 0001350  96.8544 263.2602 15.08842853 84288,6917.872,95.437,540.671,538.803,0.0
51804.0,STARLINK-3601,PAYLOAD,2023-08-27 02:46:18,15.08839704,0.0001532,53.2183,164.1858,85.0028,275.1139,5.963e-05,6.61e-06,0.0,0 STARLINK-3601,1 51804U 22017AN  23239.11548959  .00000661  00000-0  59630-4 0  9991,2 51804  53.2183 164.1858 0001532  85.0028 275.1139 15.08839704 84521,6917.881,95.438,540.806,538.686,0.0
51804.0,STARLINK-3601,PAYLOAD,2023-08-27 05:57:04,15.08845478,0.0001492,53.2181,163.59,83.994,276.1222,6.2339e-05,7.04e-06,0.0,0 STARLINK-3601,1 51804U 22017AN  23239.24796576  .00000704  00000-0  62339-4 0  9993,2 51804  53.2181 163.5900 0001492  83.9940 276.1222 15.08845478 84445,6917.864,95.437,540.761,538.696,0.0
51804.0,STARLINK-3601,PAYLOAD,2023-08-27 18:40:09,15.08841073,0.0001401,53.2174,161.2131,93.2435,266.8717,1.5354e-05,-4.4e-07,0.0,0 STARLINK-3601,1 51804U 22017AN  23239.77788994 -.00000044  00000-0  15354-4 0  9999,2 51804  53.2174 161.2131 0001401  93.2435 266.8717 15.08841073 84522,6917.877,95.437,540.711,538.773,0.0
51804.0,STARLINK-3601,PAYLOAD,2023-08-28 04:12:27,15.08852027,0.0001426,53.2174,159.4285,90.6103,269.5052,0.0001071,1.417e-05,0.0,0 STARLINK-3601,1 51804U 22017AN  23240.17531964  .00001417  00000-0  10710-3 0  9992,2 51804  53.2174 159.4285 0001426  90.6103 269.5052 15.08852027 84681,6917.844,95.437,540.695,538.722,0.0
51804.0,STARLINK-3601,PAYLOAD,2023-08-28 12:09:24,15.088363,0.0001931,53.2178,157.9414,85.5169,274.6044,-2.2632e-05,-6.48e-06,0.0,0 STARLINK-3601,1 51804U 22017AN  23240.50653420 -.00000648  00000-0 -22632-4 0  9995,2 51804  53.2178 157.9414 0001931  85.5169 274.6044 15.08836300 84738,6917.892,95.438,541.093,538.421,0.0
51804.0,STARLINK-3601,PAYLOAD,2023-08-29 00:52:29,15.08842234,0.00012,53.2172,155.5634,86.6464,273.4665,2.2604e-05,7.2e-07,0.0,0 STARLINK-3601,1 51804U 22017AN  23241.03644747  .00000072  00000-0  22604-4 0  9994,2 51804  53.2172 155.5634 0001200  86.6464 273.4665 15.08842234 84817,6917.874,95.437,540.569,538.908,0.0
51804.0,STARLINK-3601,PAYLOAD,2023-08-29 12:00:11,15.08839862,0.000151,53.2179,153.4808,84.5667,275.5498,-1.864e-05,-5.85e-06,0.0,0 STARLINK-3601,1 51804U 22017AN  23241.50013015 -.00000585  00000-0 -18640-4 0  9990,2 51804  53.2179 153.4808 0001510  84.5667 275.5498 15.08839862 84786,6917.881,95.438,540.79,538.701,0.0
51804.0,STARLINK-3601,PAYLOAD,2023-08-30 00:43:16,15.088387,0.0001447,53.2183,151.1021,94.4676,265.6482,-4.0061e-05,-9.25e-06,0.0,0 STARLINK-3601,1 51804U 22017AN  23242.03005237 -.00000925  00000-0 -40061-4 0  9996,2 51804  53.2183 151.1021 0001447  94.4676 265.6482 15.08838700 84965,6917.884,95.438,540.75,538.748,0.0
51804.0,STARLINK-3601,PAYLOAD,2023-08-30 03:54:02,15.08843348,0.0001357,53.2181,150.5057,102.7928,257.3215,-3.5192e-05,-8.48e-06,0.0,0 STARLINK-3601,1 51804U 22017AN  23242.16252809 -.00000848  00000-0 -35192-4 0  9992,2 51804  53.2181 150.5057 0001357 102.7928 257.3215 15.08843348 84885,6917.87,95.437,540.674,538.796,0.0
51804.0,STARLINK-3601,PAYLOAD,2023-08-31 03:44:49,15.08844782,0.0001196,53.2175,146.0469,91.7112,268.4018,2.5489e-05,1.18e-06,0.0,0 STARLINK-3601,1 51804U 22017AN  23243.15612815  .00000118  00000-0  25489-4 0  9995,2 51804  53.2175 146.0469 0001196  91.7112 268.4018 15.08844782 85134,6917.866,95.437,540.558,538.903,0.0
51804.0,STARLINK-3601,PAYLOAD,2023-09-01 09:57:09,15.08836962,0.0001071,53.218,140.3982,87.4557,272.6558,3.1583e-05,2.15e-06,0.0,0 STARLINK-3601,1 51804U 22017AN  23244.41469586  .00000215  00000-0  31583-4 0  9990,2 51804  53.2180 140.3982 0001071  87.4557 272.6558 15.08836962 85322,6917.89,95.438,540.496,539.014,0.0
51804.0,STARLINK-3601,PAYLOAD,2023-09-01 16:18:42,15.08836221,0.0001269,53.2177,139.2076,89.4757,270.6381,8.0261e-05,9.9e-06,0.0,0 STARLINK-3601,1 51804U 22017AN  23244.67965598  .00000990  00000-0  80261-4 0  9999,2 51804  53.2177 139.2076 0001269  89.4757 270.6381 15.08836221 85265,6917.892,95.438,540.635,538.879,0.0
51804.0,STARLINK-3601,PAYLOAD,2023-09-02 01:51:00,15.08849935,0.0001255,53.2173,137.4241,92.1993,267.9143,0.00010181,1.333e-05,0.0,0 STARLINK-3601,1 51804U 22017AN  23245.07708608  .00001333  00000-0  10181-3 0  9996,2 51804  53.2173 137.4241 0001255  92.1993 267.9143 15.08849935 85422,6917.85,95.437,540.583,538.847,0.0
51804.0,STARLINK-3601,PAYLOAD,2023-09-02 09:47:56,15.0883934,0.0001335,53.2172,135.9376,94.4187,265.6958,6.7556e-06,-1.8e-06,0.0,0 STARLINK-3601,1 51804U 22017AN  23245.40829548 -.00000180  00000-0  67556-5 0  9990,2 51804  53.2172 135.9376 0001335  94.4187 265.6958 15.08839340 85475,6917.882,95.438,540.671,538.824,0.0
51804.0,STARLINK-3601,PAYLOAD,2023-09-02 16:09:29,15.08836643,0.0001302,53.2167,134.7484,93.5666,266.5476,4.9469e-05,4.99e-06,0.0,0 STARLINK-3601,1 51804U 22017AN  23245.67325672  .00000499  00000-0  49469-4 0  9992,2 51804  53.2167 134.7484 0001302  93.5666 266.5476 15.08836643 85414,6917.891,95.438,540.656,538.855,0.0
51804.0,STARLINK-3601,PAYLOAD,2023-09-03 09:38:44,15.08837897,0.0001427,53.217,131.4773,88.9387,271.1768,1.373e-05,-6.9e-07,0.0,0 STARLINK-3601,1 51804U 22017AN  23246.40189839 -.00000069  00000-0  13730-4 0  9993,2 51804  53.2170 131.4773 0001427  88.9387 271.1768 15.08837897 85529,6917.887,95.438,540.739,538.765,0.0
51804.0,STARLINK-3601,PAYLOAD,2023-09-04 01:32:35,15.08834943,0.0001311,53.2174,128.5023,94.0381,266.0761,-7.0063e-05,-1.403e-05,0.0,0 STARLINK-3601,1 51804U 22017AN  23247.06430476 -.00001403  00000-0 -70063-4 0  9998,2 51804  53.2174 128.5023 0001311  94.0381 266.0761 15.08834943 85729,6917.896,95.438,540.668,538.854,0.0
51804.0,STARLINK-3601,PAYLOAD,2023-09-04 09:29:31,15.08841408,0.0001313,53.2175,127.0159,94.475,265.6392,-2.1851e-05,-6.36e-06,0.0,0 STARLINK-3601,1 51804U 22017AN  23247.39550012 -.00000636  00000-0 -21851-4 0  9991,2 51804  53.2175 127.0159 0001313  94.4750 265.6392 15.08841408 85774,6917.876,95.437,540.649,538.833,0.0
51804.0,STARLINK-3601,PAYLOAD,2023-09-05 01:23:21,15.08849483,0.0001348,53.2174,124.0423,90.8744,269.2402,0.00011089,1.478e-05,0.0,0 STARLINK-3601,1 51804U 22017AN  23248.05789276  .00001478  00000-0  11089-3 0  9995,2 51804  53.2174 124.0423 0001348  90.8744 269.2402 15.08849483 85879,6917.851,95.437,540.649,538.784,0.0
51804.0,STARLINK-3601,PAYLOAD,2023-09-06 01:14:10,15.08835397,0.0001524,53.2177,119.5823,93.6091,266.5075,0.00011994,1.621e-05,0.0,0 STARLINK-3601,1 51804U 22017AN  23249.05150564  .00001621  00000-0  11994-3 0  9993,2 51804  53.2177 119.5823 0001524  93.6091 266.5075 15.08835397 86020,6917.894,95.438,540.814,538.705,0.0
51804.0,STARLINK-3601,PAYLOAD,2023-09-06 21:54:09,15.08853141,0.0001541,53.2175,115.717,93.1051,267.0118,0.00012542,1.709e-05,0.0,0 STARLINK-3601,1 51804U 22017AN  23249.91261292  .00001709  00000-0  12542-3 0  9996,2 51804  53.2175 115.7170 0001541  93.1051 267.0118 15.08853141 86055,6917.84,95.437,540.771,538.639,0.0
51804.0,STARLINK-3601,PAYLOAD,2023-09-07 01:04:55,15.08857856,0.0001361,53.2176,115.1212,95.7154,264.3994,9.1854e-05,1.175e-05,0.0,0 STARLINK-3601,1 51804U 22017AN  23250.04508990  .00001175  00000-0  91854-4 0  9992,2 51804  53.2176 115.1212 0001361  95.7154 264.3994 15.08857856 86171,6917.826,95.436,540.632,538.749,0.0
51804.0,STARLINK-3601,PAYLOAD,2023-09-07 13:48:01,15.08839939,0.0001599,53.2178,112.7411,93.0638,267.0537,9.6905e-05,1.255e-05,0.0,0 STARLINK-3601,1 51804U 22017AN  23250.57502213  .00001255  00000-0  96905-4 0  9993,2 51804  53.2178 112.7411 0001599  93.0638 267.0537 15.08839939 86151,6917.881,95.438,540.852,538.639,0.0
51804.0,STARLINK-3601,PAYLOAD,2023-09-07 15:23:24,15.08843463,0.0001281,53.217,112.4437,98.2072,261.9066,4.8168e-05,4.79e-06,0.0,0 STARLINK-3601,1 51804U 22017AN  23250.64126049  .00000479  00000-0  48168-4 0  9995,2 51804  53.2170 112.4437 0001281  98.2072 261.9066 15.08843463 86163,6917.87,95.437,540.621,538.849,0.0
51804.0,STARLINK-3601,PAYLOAD,2023-09-07 21:44:57,15.0884331,0.0001164,53.2161,111.2549,87.369,272.7435,5.0729e-05,5.2e-06,0.0,0 STARLINK-3601,1 51804U 22017AN  23250.90622038  .00000520  00000-0  50729-4 0  9996,2 51804  53.2161 111.2549 0001164  87.3690 272.7435 15.08843310 86205,6917.87,95.437,540.541,538.93,0.0
51804.0,STARLINK-3601,PAYLOAD,2023-09-08 18:24:58,15.08841483,0.0001214,53.2181,107.3905,84.1448,275.9682,0.0001118,1.492e-05,0.0,0 STARLINK-3601,1 51804U 22017AN  23251.76733861  .00001492  00000-0  11180-3 0  9994,2 51804  53.2181 107.3905 0001214  84.1448 275.9682 15.08841483 86434,6917.876,95.437,540.581,538.901,0.0
51804.0,STARLINK-3601,PAYLOAD,2023-09-08 21:35:43,15.08851205,0.0001134,53.2164,106.7943,83.8276,276.2845,3.4883e-05,2.68e-06,0.0,0 STARLINK-3601,1 51804U 22017AN  23251.89981466  .00000268  00000-0  34883-4 0  9990,2 51804  53.2164 106.7943 0001134  83.8276 276.2845 15.08851205 86355,6917.846,95.437,540.496,538.927,0.0
